[{"OBJECT_NAME":"ORBCOMM FM108","OBJECT_ID":"2015-081J","EPOCH":"2026-03-09T21:48:58.312800","MEAN_MOTION":14.58744372,"ECCENTRICITY":0.00021704,"INCLINATION":47.0049,"RA_OF_ASC_NODE":291.5329,"ARG_OF_PERICENTER":99.248,"MEAN_ANOMALY":260.8651,"EPHEMERIS_TYPE":0,"CLASSIFICATION_TYPE":"U","NORAD_CAT_ID":41187,"ELEMENT_SET_NO":999,"REV_AT_EPOCH":54558,"BSTAR":0.0002287344,"MEAN_MOTION_DOT":9.07e-6,"MEAN_MOTION_DDOT":0},{"OBJECT_NAME":"NOAA 17 DEB","OBJECT_ID":"2002-032BB","EPOCH":"2026-03-09T23:12:28.814688","MEAN_MOTION":14.61740146,"ECCENTRICITY":0.00177958,"INCLINATION":98.9647,"RA_OF_ASC_NODE":129.0088,"ARG_OF_PERICENTER":103.1292,"MEAN_ANOMALY":257.1894,"EPHEMERIS_TYPE":0,"CLASSIFICATION_TYPE":"U","NORAD_CAT_ID":48718,"ELEMENT_SET_NO":999,"REV_AT_EPOCH":26169,"BSTAR":0.0023992984,"MEAN_MOTION_DOT":0.00011952,"MEAN_MOTION_DDOT":0}]
